{
    "links": {
        "self": "http://www.neowsapp.com/rest/v1/neo/54055075?api_key=iIulBulltgU6a56xZRHN4H3l9WmuAYTsLGpBGhQ2"
    },
    "id": "54055075",
    "neo_reference_id": "54055075",
    "name": "(2020 TD2)",
    "designation": "2020 TD2",
    "nasa_jpl_url": "http://ssd.jpl.nasa.gov/sbdb.cgi?sstr=54055075",
    "absolute_magnitude_h": 25.574,
    "estimated_diameter": {
        "kilometers": {
            "estimated_diameter_min": 0.0204058635,
            "estimated_diameter_max": 0.0456288979
        },
        "meters": {
            "estimated_diameter_min": 20.4058634712,
            "estimated_diameter_max": 45.6288978611
        },
        "miles": {
            "estimated_diameter_min": 0.0126796118,
            "estimated_diameter_max": 0.0283524739
        },
        "feet": {
            "estimated_diameter_min": 66.9483731108,
            "estimated_diameter_max": 149.7011132587
        }
    },
    "is_potentially_hazardous_asteroid": false,
    "close_approach_data": [
        {
            "close_approach_date": "2014-11-20",
            "close_approach_date_full": "2014-Nov-20 00:07",
            "epoch_date_close_approach": 1416442020000,
            "relative_velocity": {
                "kilometers_per_second": "5.135458582",
                "kilometers_per_hour": "18487.6508950831",
                "miles_per_hour": "11487.5073020032"
            },
            "miss_distance": {
                "astronomical": "1.460818478",
                "lunar": "568.258387942",
                "kilometers": "218535332.76544186",
                "miles": "135791559.042183268"
            },
            "orbiting_body": "Juptr"
        },
        {
            "close_approach_date": "2020-10-08",
            "close_approach_date_full": "2020-Oct-08 04:00",
            "epoch_date_close_approach": 1602129600000,
            "relative_velocity": {
                "kilometers_per_second": "15.9595961918",
                "kilometers_per_hour": "57454.5462904382",
                "miles_per_hour": "35700.0207214115"
            },
            "miss_distance": {
                "astronomical": "0.0103969534",
                "lunar": "4.0444148726",
                "kilometers": "1555362.083129258",
                "miles": "966457.1832414404"
            },
            "orbiting_body": "Earth"
        }
    ],
    "orbital_data": {
        "orbit_id": "9",
        "orbit_determination_date": "2020-10-27 07:15:16",
        "first_observation_date": "2020-10-09",
        "last_observation_date": "2020-10-23",
        "data_arc_in_days": 14,
        "observations_used": 98,
        "orbit_uncertainty": "7",
        "minimum_orbit_intersection": ".0100677",
        "jupiter_tisserand_invariant": "3.122",
        "epoch_osculation": "2459000.5",
        "eccentricity": ".6681838709356799",
        "semi_major_axis": "2.47708145900569",
        "inclination": "6.010796607168769",
        "ascending_node_longitude": "200.019087523577",
        "orbital_period": "1423.996296537933",
        "perihelion_distance": ".8219355811042663",
        "perihelion_argument": "118.2545090715682",
        "aphelion_distance": "4.132227336907113",
        "perihelion_time": "2459092.621977291549",
        "mean_anomaly": "336.7106755083655",
        "mean_motion": ".2528096462576792",
        "equinox": "J2000",
        "orbit_class": {
            "orbit_class_type": "APO",
            "orbit_class_description": "Near-Earth asteroid orbits which cross the Earth’s orbit similar to that of 1862 Apollo",
            "orbit_class_range": "a (semi-major axis) > 1.0 AU; q (perihelion) < 1.017 AU"
        }
    },
    "is_sentry_object": false
}